NORAD_CAT_ID,OBJECT_NAME,OBJECT_TYPE,EPOCH,MEAN_MOTION,ECCENTRICITY,INCLINATION,RA_OF_ASC_NODE,ARG_OF_PERICENTER,MEAN_ANOMALY,BSTAR,MEAN_MOTION_DOT,MEAN_MOTION_DDOT,TLE_LINE0,TLE_LINE1,TLE_LINE2,SEMIMAJOR_AXIS,PERIOD,APOGEE,PERIGEE,DECAYED
53848.0,STARLINK-4780,PAYLOAD,2023-11-28 12:06:10,15.08848533,0.0001503,53.2188,69.6827,91.6389,268.4775,0.00013239,1.82e-05,0.0,0 STARLINK-4780,1 53848U 22114AG  23332.50428643  .00001820  00000-0  13239-3 0  9995,2 53848  53.2188  69.6827 0001503  91.6389 268.4775 15.08848533 66804,6917.854,95.437,540.759,538.68,0.0
53848.0,STARLINK-4780,PAYLOAD,2023-11-29 11:56:58,15.08837161,0.0001521,53.2186,65.2183,102.6034,257.5129,0.0002579,3.819e-05,0.0,0 STARLINK-4780,1 53848U 22114AG  23333.49789498  .00003819  00000-0  25790-3 0  9997,2 53848  53.2186  65.2183 0001521 102.6034 257.5129 15.08837161 66952,6917.889,95.438,540.806,538.702,0.0
53848.0,STARLINK-4780,PAYLOAD,2023-11-30 11:47:44,15.08854562,0.0002197,53.2192,60.7643,138.5373,221.5787,0.00014592,2.036e-05,0.0,0 STARLINK-4780,1 53848U 22114AG  23334.49148564  .00002036  00000-0  14592-3 0  9999,2 53848  53.2192  60.7643 0002197 138.5373 221.5787 15.08854562 67107,6917.836,95.437,541.221,538.181,0.0
53848.0,STARLINK-4780,PAYLOAD,2023-11-30 13:23:08,15.08848481,0.0001392,53.2188,60.4644,86.9884,273.1267,0.00012888,1.764e-05,0.0,0 STARLINK-4780,1 53848U 22114AG  23334.55773292  .00001764  00000-0  12888-3 0  9991,2 53848  53.2188  60.4644 0001392  86.9884 273.1267 15.08848481 67119,6917.854,95.437,540.682,538.757,0.0
53848.0,STARLINK-4780,PAYLOAD,2023-12-01 13:13:55,15.0885,0.0001531,53.2191,56.0055,99.8261,260.2904,0.00027992,4.171e-05,0.0,0 STARLINK-4780,1 53848U 22114AG  23335.55133401  .00004171  00000-0  27992-3 0  9991,2 53848  53.2191  56.0055 0001531  99.8261 260.2904 15.08850000 67268,6917.85,95.437,540.774,538.656,0.0
53848.0,STARLINK-4780,PAYLOAD,2023-12-02 11:29:17,15.08875351,0.0001353,53.2177,51.8397,89.0357,271.079,0.00048292,7.413e-05,0.0,0 STARLINK-4780,1 53848U 22114AG  23336.47867473  .00007413  00000-0  48292-3 0  9994,2 53848  53.2177  51.8397 0001353  89.0357 271.0790 15.08875351 67408,6917.772,95.435,540.573,538.701,0.0
53848.0,STARLINK-4780,PAYLOAD,2023-12-03 11:20:08,15.0880906,0.000151,53.2185,47.3829,82.7919,277.3244,-0.00048561,-8.002e-05,0.0,0 STARLINK-4780,1 53848U 22114AG  23337.47231511 -.00008002  00000-0 -48561-3 0  9999,2 53848  53.2185  47.3829 0001510  82.7919 277.3244 15.08809060 67559,6917.975,95.44,540.885,538.795,0.0
53848.0,STARLINK-4780,PAYLOAD,2023-12-04 11:10:53,15.08860551,0.000154,53.2183,42.9187,76.072,284.0444,6.9653e-07,-2.77e-06,0.0,0 STARLINK-4780,1 53848U 22114AG  23338.46589184 -.00000277  00000-0  69653-6 0  9994,2 53848  53.2183  42.9187 0001540  76.0720 284.0444 15.08860551 67700,6917.818,95.436,540.748,538.617,0.0
53848.0,STARLINK-4780,PAYLOAD,2023-12-04 14:21:39,15.08862202,0.0001557,53.2181,42.3245,73.4333,286.6831,3.0295e-05,1.94e-06,0.0,0 STARLINK-4780,1 53848U 22114AG  23338.59836902  .00000194  00000-0  30295-4 0  9996,2 53848  53.2181  42.3245 0001557  73.4333 286.6831 15.08862202 68261,6917.813,95.436,540.755,538.6,0.0
53848.0,STARLINK-4780,PAYLOAD,2023-12-05 11:01:41,15.08835073,0.0001702,53.2191,38.4554,71.4976,288.6201,0.00043608,6.658e-05,0.0,0 STARLINK-4780,1 53848U 22114AG  23339.45950299  .00006658  00000-0  43608-3 0  9990,2 53848  53.2191  38.4554 0001702  71.4976 288.6201 15.08835073 67857,6917.895,95.438,540.938,538.583,0.0
53848.0,STARLINK-4780,PAYLOAD,2023-12-06 10:52:28,15.0884976,0.0001786,53.2194,33.9972,75.3684,284.7506,-2.597e-05,-7.02e-06,0.0,0 STARLINK-4780,1 53848U 22114AG  23340.45310500 -.00000702  00000-0 -25970-4 0  9996,2 53848  53.2194  33.9972 0001786  75.3684 284.7506 15.08849760 68545,6917.851,95.437,540.951,538.48,0.0
53848.0,STARLINK-4780,PAYLOAD,2023-12-07 10:43:15,15.08844071,0.0001906,53.2196,29.5374,72.6196,287.5004,-6.0495e-05,-1.251e-05,0.0,0 STARLINK-4780,1 53848U 22114AG  23341.44670676 -.00001251  00000-0 -60495-4 0  9990,2 53848  53.2196  29.5374 0001906  72.6196 287.5004 15.08844071 68157,6917.868,95.437,541.051,538.414,0.0
53848.0,STARLINK-4780,PAYLOAD,2023-12-08 10:34:02,15.08838505,0.0001996,53.2194,25.0792,68.1556,291.9648,3.8456e-05,3.24e-06,0.0,0 STARLINK-4780,1 53848U 22114AG  23342.44030832  .00000324  00000-0  38456-4 0  9995,2 53848  53.2194  25.0792 0001996  68.1556 291.9648 15.08838505 68843,6917.885,95.438,541.131,538.369,0.0
53848.0,STARLINK-4780,PAYLOAD,2023-12-09 10:24:47,15.08859628,0.0001919,53.219,20.6177,69.2798,290.84,0.00020823,3.029e-05,0.0,0 STARLINK-4780,1 53848U 22114AG  23343.43388438  .00003029  00000-0  20823-3 0  9996,2 53848  53.2190  20.6177 0001919  69.2798 290.8400 15.08859628 68452,6917.82,95.436,541.013,538.358,0.0
53848.0,STARLINK-4780,PAYLOAD,2023-12-09 12:00:10,15.0886161,0.0001886,53.2188,20.3201,70.742,289.3776,0.00022311,3.267e-05,0.0,0 STARLINK-4780,1 53848U 22114AG  23343.50012193  .00003267  00000-0  22311-3 0  9994,2 53848  53.2188  20.3201 0001886  70.7420 289.3776 15.08861610 69001,6917.814,95.436,540.984,538.375,0.0
53848.0,STARLINK-4780,PAYLOAD,2023-12-11 11:41:46,15.08846393,0.0001614,53.2189,11.397,96.0673,264.0503,-9.5565e-05,-1.809e-05,0.0,0 STARLINK-4780,1 53848U 22114AG  23345.48734359 -.00001809  00000-0 -95565-4 0  9992,2 53848  53.2189  11.3970 0001614  96.0673 264.0503 15.08846393 68766,6917.861,95.437,540.842,538.609,0.0
53848.0,STARLINK-4780,PAYLOAD,2023-12-11 13:17:09,15.08849013,0.0001522,53.2177,11.1036,88.3427,271.7739,-7.829e-05,-1.534e-05,0.0,0 STARLINK-4780,1 53848U 22114AG  23345.55358161 -.00001534  00000-0 -78290-4 0  9994,2 53848  53.2177  11.1036 0001522  88.3427 271.7739 15.08849013 69313,6917.853,95.437,540.771,538.665,0.0
53848.0,STARLINK-4780,PAYLOAD,2023-12-12 06:46:24,15.08841159,0.0001491,53.2178,7.8332,79.5352,280.5808,8.7703e-05,1.108e-05,0.0,0 STARLINK-4780,1 53848U 22114AG  23346.28223000  .00001108  00000-0  87703-4 0  9992,2 53848  53.2178   7.8332 0001491  79.5352 280.5808 15.08841159 68888,6917.877,95.437,540.773,538.71,0.0
53848.0,STARLINK-4780,PAYLOAD,2023-12-13 06:37:11,15.08838327,0.0001468,53.2179,3.3731,91.4445,268.6715,4.1354e-05,3.7e-06,0.0,0 STARLINK-4780,1 53848U 22114AG  23347.27583285  .00000370  00000-0  41354-4 0  9998,2 53848  53.2179   3.3731 0001468  91.4445 268.6715 15.08838327 69577,6917.886,95.438,540.766,538.735,0.0
53848.0,STARLINK-4780,PAYLOAD,2023-12-14 08:03:22,15.08840364,0.0001802,53.2193,358.6185,112.9078,247.2104,4.5931e-05,4.43e-06,0.0,0 STARLINK-4780,1 53848U 22114AG  23348.33567197  .00000443  00000-0  45931-4 0  9996,2 53848  53.2193 358.6185 0001802 112.9078 247.2104 15.08840364 69192,6917.879,95.438,540.991,538.498,0.0
53848.0,STARLINK-4780,PAYLOAD,2023-12-15 07:54:09,15.08805905,0.0001666,53.2184,354.1516,89.5273,270.591,0.00053056,8.158e-05,0.0,0 STARLINK-4780,1 53848U 22114AG  23349.32928011  .00008158  00000-0  53056-3 0  9999,2 53848  53.2184 354.1516 0001666  89.5273 270.5910 15.08805905 69348,6917.985,95.44,541.002,538.697,0.0
53848.0,STARLINK-4780,PAYLOAD,2023-12-16 07:44:57,15.08834379,0.0001534,53.2182,349.6937,71.5505,288.5654,4.2115e-05,3.82e-06,0.0,0 STARLINK-4780,1 53848U 22114AG  23350.32288206  .00000382  00000-0  42115-4 0  9992,2 53848  53.2182 349.6937 0001534  71.5505 288.5654 15.08834379 69492,6917.898,95.438,540.824,538.701,0.0
53848.0,STARLINK-4780,PAYLOAD,2023-12-17 06:00:20,15.08838719,0.0001667,53.2181,345.5321,69.3756,290.7415,5.2781e-05,5.52e-06,0.0,0 STARLINK-4780,1 53848U 22114AG  23351.25024201  .00000552  00000-0  52781-4 0  9997,2 53848  53.2181 345.5321 0001667  69.3756 290.7415 15.08838719 70172,6917.884,95.438,540.903,538.596,0.0
53848.0,STARLINK-4780,PAYLOAD,2023-12-18 05:51:06,15.08855246,0.0001787,53.2187,341.0661,67.9304,292.1878,0.00022389,3.278e-05,0.0,0 STARLINK-4780,1 53848U 22114AG  23352.24382520  .00003278  00000-0  22389-3 0  9996,2 53848  53.2187 341.0661 0001787  67.9304 292.1878 15.08855246 69780,6917.834,95.437,540.935,538.463,0.0
53848.0,STARLINK-4780,PAYLOAD,2023-12-19 04:06:31,15.08843408,0.0001753,53.219,336.8999,130.4104,229.7041,-2.3195e-05,-6.57e-06,0.0,0 STARLINK-4780,1 53848U 22114AG  23353.17119490 -.00000657  00000-0 -23195-4 0  9990,2 53848  53.2190 336.8999 0001753 130.4104 229.7041 15.08843408 69928,6917.87,95.437,540.948,538.522,0.0
53848.0,STARLINK-4780,PAYLOAD,2023-12-19 05:41:54,15.08841179,0.0001575,53.2188,336.6097,129.3944,230.7188,-3.6386e-05,-8.67e-06,0.0,0 STARLINK-4780,1 53848U 22114AG  23353.23743755 -.00000867  00000-0 -36386-4 0  9993,2 53848  53.2188 336.6097 0001575 129.3944 230.7188 15.08841179 70472,6917.877,95.437,540.831,538.652,0.0
53848.0,STARLINK-4780,PAYLOAD,2023-12-20 05:32:41,15.08852655,0.0001452,53.219,332.1458,118.8109,241.3029,-0.00015164,-2.701e-05,0.0,0 STARLINK-4780,1 53848U 22114AG  23354.23103503 -.00002701  00000-0 -15164-3 0  9994,2 53848  53.2190 332.1458 0001452 118.8109 241.3029 15.08852655 70087,6917.842,95.437,540.711,538.702,0.0
53848.0,STARLINK-4780,PAYLOAD,2023-12-21 03:48:05,15.08846549,0.0001268,53.2175,327.9801,96.7652,263.3484,0.00031302,4.698e-05,0.0,0 STARLINK-4780,1 53848U 22114AG  23355.15839611  .00004698  00000-0  31302-3 0  9999,2 53848  53.2175 327.9801 0001268  96.7652 263.3484 15.08846549 70226,6917.86,95.437,540.603,538.848,0.0
53848.0,STARLINK-4780,PAYLOAD,2023-12-21 05:23:28,15.08850276,0.0001288,53.2176,327.6813,94.789,265.3249,0.00036829,5.58e-05,0.0,0 STARLINK-4780,1 53848U 22114AG  23355.22463451  .00005580  00000-0  36829-3 0  9992,2 53848  53.2176 327.6813 0001288  94.7890 265.3249 15.08850276 70774,6917.849,95.437,540.605,538.823,0.0
53848.0,STARLINK-4780,PAYLOAD,2023-12-22 03:38:53,15.08838618,0.0001331,53.2173,323.5204,94.487,265.6274,7.076e-05,8.38e-06,0.0,0 STARLINK-4780,1 53848U 22114AG  23356.15200346  .00000838  00000-0  70760-4 0  9991,2 53848  53.2173 323.5204 0001331  94.4870 265.6274 15.08838618 70377,6917.885,95.438,540.67,538.829,0.0
